{"type": "FeatureCollection", "features": [ {"type": "Feature", "properties": {"norad_id": 67069, "name": "XIWANG-5 02", "group": "last-30-days", "lat": -41.33141608297761, "lon": -23.190624561534918, "alt_km": 527.9676122305918, "timestamp": "2025-12-18T17:50:13.703393+00:00", "meta": {"OBJECT_NAME": "XIWANG-5 02", "OBJECT_ID": "2025-296A", "EPOCH": "2025-12-17T16:56:59.195616", "MEAN_MOTION": 15.16768165, "ECCENTRICITY": 0.00145859, "INCLINATION": 41.3523, "RA_OF_ASC_NODE": 73.2396, "ARG_OF_PERICENTER": 59.9158, "MEAN_ANOMALY": 300.3108, "EPHEMERIS_TYPE": 0, "CLASSIFICATION_TYPE": "U", "NORAD_CAT_ID": 67069, "ELEMENT_SET_NO": 999, "REV_AT_EPOCH": 71, "BSTAR": 0.00053476127, "MEAN_MOTION_DOT": 0.00010539, "MEAN_MOTION_DDOT": 0}, "tle": {"line1": "1 67069U 25296A   25351.70624069  .00010539  00000+0  53476-3 0  9997", "line2": "2 67069  41.3523  73.2396 0014585  59.9158 300.3108 15.16768165   717"}}, "geometry": {"type": "Point", "coordinates": [-23.190624561534918, -41.33141608297761]}}, {"type": "Feature", "properties": {"norad_id": 67070, "name": "DEAR-5", "group": "last-30-days", "lat": -41.2403910640038, "lon": -18.000032808761706, "alt_km": 528.517447168243, "timestamp": "2025-12-18T17:50:13.703403+00:00", "meta": {"OBJECT_NAME": "DEAR-5", "OBJECT_ID": "2025-296B", "EPOCH": "2025-12-18T02:24:55.721952", "MEAN_MOTION": 15.16876304, "ECCENTRICITY": 0.00162233, "INCLINATION": 41.3551, "RA_OF_ASC_NODE": 70.9837, "ARG_OF_PERICENTER": 63.894, "MEAN_ANOMALY": 296.3549, "EPHEMERIS_TYPE": 0, "CLASSIFICATION_TYPE": "U", "NORAD_CAT_ID": 67070, "ELEMENT_SET_NO": 999, "REV_AT_EPOCH": 76, "BSTAR": 0.00027561524, "MEAN_MOTION_DOT": 5.347e-05, "MEAN_MOTION_DDOT": 0}, "tle": {"line1": "1 67070U 25296B   25352.10064493  .00005347  00000+0  27562-3 0  9991", "line2": "2 67070  41.3551  70.9837 0016223  63.8940 296.3549 15.16876304   761"}}, "geometry": {"type": "Point", "coordinates": [-18.000032808761706, -41.2403910640038]}}, {"type": "Feature", "properties": {"norad_id": 67071, "name": "KZ-11 R/B", "group": "last-30-days", "lat": -26.60899568567448, "lon": -75.62379673834599, "alt_km": 909.8764524714616, "timestamp": "2025-12-18T17:50:13.703413+00:00", "meta": {"OBJECT_NAME": "KZ-11 R/B", "OBJECT_ID": "2025-296C", "EPOCH": "2025-12-18T07:07:45.775776", "MEAN_MOTION": 14.83254648, "ECCENTRICITY": 0.06940751, "INCLINATION": 41.3333, "RA_OF_ASC_NODE": 72.079, "ARG_OF_PERICENTER": 352.8765, "MEAN_ANOMALY": 6.2578, "EPHEMERIS_TYPE": 0, "CLASSIFICATION_TYPE": "U", "NORAD_CAT_ID": 67071, "ELEMENT_SET_NO": 999, "REV_AT_EPOCH": 77, "BSTAR": 0.00052718859, "MEAN_MOTION_DOT": 0.05649325, "MEAN_MOTION_DDOT": 5.952766e-06}, "tle": {"line1": "1 67071U 25296C   25352.29705759  .05649325  59528-5  52719-3 0  9991", "line2": "2 67071  41.3333  72.0790 0694075 352.8765   6.2578 14.83254648   779"}}, "geometry": {"type": "Point", "coordinates": [-75.62379673834599, -26.60899568567448]}}, {"type": "Feature", "properties": {"norad_id": 67072, "name": "ELECTRON R/B", "group": "last-30-days", "lat": 79.17216021210807, "lon": 97.26257118610694, "alt_km": 389.37337198704336, "timestamp": "2025-12-18T17:50:13.703426+00:00", "meta": {"OBJECT_NAME": "ELECTRON R/B", "OBJECT_ID": "2025-297A", "EPOCH": "2025-12-18T06:52:26.724288", "MEAN_MOTION": 15.84290953, "ECCENTRICITY": 0.02142477, "INCLINATION": 97.4756, "RA_OF_ASC_NODE": 140.1222, "ARG_OF_PERICENTER": 212.3335, "MEAN_ANOMALY": 146.4657, "EPHEMERIS_TYPE": 0, "CLASSIFICATION_TYPE": "U", "NORAD_CAT_ID": 67072, "ELEMENT_SET_NO": 999, "REV_AT_EPOCH": 66, "BSTAR": 0.0014083341, "MEAN_MOTION_DOT": 0.02262304, "MEAN_MOTION_DDOT": 2.220172e-06}, "tle": {"line1": "1 67072U 25297A   25352.28642042  .02262304  22202-5  14083-2 0  9992", "line2": "2 67072  97.4756 140.1222 0214247 212.3335 146.4657 15.84290953   664"}}, "geometry": {"type": "Point", "coordinates": [97.26257118610694, 79.17216021210807]}}, {"type": "Feature", "properties": {"norad_id": 67073, "name": "RAISE-4", "group": "last-30-days", "lat": 13.219217410775627, "lon": 138.36075595667307, "alt_km": 543.873077141915, "timestamp": "2025-12-18T17:50:13.703436+00:00", "meta": {"OBJECT_NAME": "RAISE-4", "OBJECT_ID": "2025-297B", "EPOCH": "2025-12-18T06:37:28.117632", "MEAN_MOTION": 15.07171328, "ECCENTRICITY": 0.00114887, "INCLINATION": 97.4852, "RA_OF_ASC_NODE": 139.6762, "ARG_OF_PERICENTER": 300.7259, "MEAN_ANOMALY": 59.2836, "EPHEMERIS_TYPE": 0, "CLASSIFICATION_TYPE": "U", "NORAD_CAT_ID": 67073, "ELEMENT_SET_NO": 999, "REV_AT_EPOCH": 62, "BSTAR": 0.00026693992, "MEAN_MOTION_DOT": 3.96e-05, "MEAN_MOTION_DDOT": 0}, "tle": {"line1": "1 67073U 25297B   25352.27601988  .00003960  00000+0  26694-3 0  9993", "line2": "2 67073  97.4852 139.6762 0011488 300.7259  59.2836 15.07171328   628"}}, "geometry": {"type": "Point", "coordinates": [138.36075595667307, 13.219217410775627]}}, {"type": "Feature", "properties": {"norad_id": 67074, "name": "ELECTRON KICK STAGE R/B", "group": "last-30-days", "lat": 72.46609190561199, "lon": 115.89735008607754, "alt_km": 529.2917539453883, "timestamp": "2025-12-18T17:50:13.703458+00:00", "meta": {"OBJECT_NAME": "ELECTRON KICK STAGE R/B", "OBJECT_ID": "2025-297C", "EPOCH": "2025-12-17T22:59:01.518144", "MEAN_MOTION": 15.5544686, "ECCENTRICITY": 0.02039141, "INCLINATION": 97.4819, "RA_OF_ASC_NODE": 139.6549, "ARG_OF_PERICENTER": 250.5377, "MEAN_ANOMALY": 107.3746, "EPHEMERIS_TYPE": 0, "CLASSIFICATION_TYPE": "U", "NORAD_CAT_ID": 67074, "ELEMENT_SET_NO": 999, "REV_AT_EPOCH": 59, "BSTAR": 0.0014072523, "MEAN_MOTION_DOT": 0.00251676, "MEAN_MOTION_DDOT": 1.8562841e-05}, "tle": {"line1": "1 67074U 25297C   25351.95765646  .00251676  18563-4  14073-2 0  9994", "line2": "2 67074  97.4819 139.6549 0203914 250.5377 107.3746 15.55446860   595"}}, "geometry": {"type": "Point", "coordinates": [115.89735008607754, 72.46609190561199]}}, {"type": "Feature", "properties": {"norad_id": 67131, "name": "ZIYUAN 3-04 (ZY 3-04)", "group": "last-30-days", "lat": 16.245225917719132, "lon": 64.63350564690192, "alt_km": 496.033033291691, "timestamp": "2025-12-18T17:50:13.703469+00:00", "meta": {"OBJECT_NAME": "ZIYUAN 3-04 (ZY 3-04)", "OBJECT_ID": "2025-300A", "EPOCH": "2025-12-16T05:54:33.890112", "MEAN_MOTION": 15.24627585, "ECCENTRICITY": 0.0011082, "INCLINATION": 97.5012, "RA_OF_ASC_NODE": 64.3338, "ARG_OF_PERICENTER": 268.6179, "MEAN_ANOMALY": 91.3789, "EPHEMERIS_TYPE": 0, "CLASSIFICATION_TYPE": "U", "NORAD_CAT_ID": 67131, "ELEMENT_SET_NO": 999, "REV_AT_EPOCH": 2, "BSTAR": 8.3268042e-05, "MEAN_MOTION_DOT": 1.984e-05, "MEAN_MOTION_DDOT": 0}, "tle": {"line1": "1 67131U 25300A   25350.24622558  .00001984  00000+0  83268-4 0  9999", "line2": "2 67131  97.5012  64.3338 0011082 268.6179  91.3789 15.24627585    26"}}, "geometry": {"type": "Point", "coordinates": [64.63350564690192, 16.245225917719132]}}, {"type": "Feature", "properties": {"norad_id": 67132, "name": "CZ-4B R/B", "group": "last-30-days", "lat": 19.733687441703093, "lon": 64.30631475102663, "alt_km": 260.9631108136564, "timestamp": "2025-12-18T17:50:13.703479+00:00", "meta": {"OBJECT_NAME": "CZ-4B R/B", "OBJECT_ID": "2025-300B", "EPOCH": "2025-12-17T15:38:50.646912", "MEAN_MOTION": 15.63708593, "ECCENTRICITY": 0.01750896, "INCLINATION": 97.5588, "RA_OF_ASC_NODE": 65.868, "ARG_OF_PERICENTER": 12.9628, "MEAN_ANOMALY": 347.6044, "EPHEMERIS_TYPE": 0, "CLASSIFICATION_TYPE": "U", "NORAD_CAT_ID": 67132, "ELEMENT_SET_NO": 999, "REV_AT_EPOCH": 24, "BSTAR": 0.00019397917, "MEAN_MOTION_DOT": 0.00040269, "MEAN_MOTION_DDOT": 2.639954e-06}, "tle": {"line1": "1 67132U 25300B   25351.65197508  .00040269  26400-5  19398-3 0  9997", "line2": "2 67132  97.5588  65.8680 0175089  12.9628 347.6044 15.63708593   245"}}, "geometry": {"type": "Point", "coordinates": [64.30631475102663, 19.733687441703093]}}, {"type": "Feature", "properties": {"norad_id": 67160, "name": "GALILEO A", "group": "last-30-days", "lat": 9.46778722860166, "lon": 114.11249270377056, "alt_km": 22959.898389895923, "timestamp": "2025-12-18T17:50:13.703490+00:00", "meta": {"OBJECT_NAME": "GALILEO A", "OBJECT_ID": "2025-302A", "EPOCH": "2025-12-18T03:30:19.807776", "MEAN_MOTION": 1.72901431, "ECCENTRICITY": 0.00080329, "INCLINATION": 54.2385, "RA_OF_ASC_NODE": 107.247, "ARG_OF_PERICENTER": 237.4965, "MEAN_ANOMALY": 122.3848, "EPHEMERIS_TYPE": 0, "CLASSIFICATION_TYPE": "U", "NORAD_CAT_ID": 67160, "ELEMENT_SET_NO": 999, "REV_AT_EPOCH": 2, "BSTAR": 0, "MEAN_MOTION_DOT": -7e-08, "MEAN_MOTION_DDOT": 0}, "tle": {"line1": "1 67160U 25302A   25352.14606259 -.00000007  00000+0  00000+0 0  9998", "line2": "2 67160  54.2385 107.2470 0008032 237.4965 122.3848  1.72901431    27"}}, "geometry": {"type": "Point", "coordinates": [114.11249270377056, 9.46778722860166]}}, {"type": "Feature", "properties": {"norad_id": 67161, "name": "GALILEO B", "group": "last-30-days", "lat": 9.71705664577948, "lon": 114.28304950083411, "alt_km": 22944.096235364555, "timestamp": "2025-12-18T17:50:13.703503+00:00", "meta": {"OBJECT_NAME": "GALILEO B", "OBJECT_ID": "2025-302B", "EPOCH": "2025-12-17T13:37:26.172192", "MEAN_MOTION": 1.72965674, "ECCENTRICITY": 0.00048649, "INCLINATION": 54.2314, "RA_OF_ASC_NODE": 107.2469, "ARG_OF_PERICENTER": 248.2865, "MEAN_ANOMALY": 111.6205, "EPHEMERIS_TYPE": 0, "CLASSIFICATION_TYPE": "U", "NORAD_CAT_ID": 67161, "ELEMENT_SET_NO": 999, "REV_AT_EPOCH": 2, "BSTAR": 0, "MEAN_MOTION_DOT": -8e-08, "MEAN_MOTION_DDOT": 0}, "tle": {"line1": "1 67161U 25302B   25351.56766403 -.00000008  00000+0  00000+0 0  9993", "line2": "2 67161  54.2314 107.2469 0004864 248.2865 111.6205  1.72965674    23"}}, "geometry": {"type": "Point", "coordinates": [114.28304950083411, 9.71705664577948]}}]}